NORAD_CAT_ID,OBJECT_NAME,OBJECT_TYPE,EPOCH,MEAN_MOTION,ECCENTRICITY,INCLINATION,RA_OF_ASC_NODE,ARG_OF_PERICENTER,MEAN_ANOMALY,BSTAR,MEAN_MOTION_DOT,MEAN_MOTION_DDOT,TLE_LINE0,TLE_LINE1,TLE_LINE2,SEMIMAJOR_AXIS,PERIOD,APOGEE,PERIGEE,DECAYED
53777.0,STARLINK-4664,PAYLOAD,2023-02-28 12:55:00,15.08844463,0.0001257,53.2173,195.4938,110.7295,249.3832,0.00016751,2.379e-05,0.0,0 STARLINK-4664,1 53777U 22111E   23059.53820032  .00002379  00000-0  16751-3 0  9992,2 53777  53.2173 195.4938 0001257 110.7295 249.3832 15.08844463 26856,6917.867,95.437,540.601,538.862,0.0
53777.0,STARLINK-4664,PAYLOAD,2023-02-28 16:05:46,15.08854895,0.0001264,53.2177,194.9001,110.7792,249.3336,0.00061761,9.559e-05,0.0,0 STARLINK-4664,1 53777U 22111E   23059.67067858  .00009559  00000-0  61761-3 0  9994,2 53777  53.2177 194.9001 0001264 110.7792 249.3336 15.08854895 26067,6917.835,95.437,540.574,538.825,0.0
53777.0,STARLINK-4664,PAYLOAD,2023-02-28 19:16:32,15.08851057,0.0001287,53.2162,194.3051,111.49,248.623,0.0012401,0.00019509,0.0,0 STARLINK-4664,1 53777U 22111E   23059.80315925  .00019509  00000-0  12401-2 0  9992,2 53777  53.2162 194.3051 0001287 111.4900 248.6230 15.08851057 26897,6917.847,95.437,540.602,538.821,0.0
53777.0,STARLINK-4664,PAYLOAD,2023-03-01 01:38:05,15.08835479,0.0001261,53.2175,193.113,92.7531,267.3605,0.00051296,7.884e-05,0.0,0 STARLINK-4664,1 53777U 22111E   23060.06812408  .00007884  00000-0  51296-3 0  9999,2 53777  53.2175 193.1130 0001261  92.7531 267.3605 15.08835479 26129,6917.894,95.438,540.632,538.887,0.0
53777.0,STARLINK-4664,PAYLOAD,2023-03-01 09:35:02,15.08811681,0.0001542,53.219,191.6304,105.5753,254.541,-0.00011365,-2.095e-05,0.0,0 STARLINK-4664,1 53777U 22111E   23060.39933221 -.00002095  00000-0 -11365-3 0  9996,2 53777  53.2190 191.6304 0001542 105.5753 254.5410 15.08811681 26179,6917.967,95.439,540.899,538.765,0.0
53777.0,STARLINK-4664,PAYLOAD,2023-03-01 14:21:12,15.08813326,0.0001543,53.2193,190.7382,103.3437,256.7728,-0.00011098,-2.052e-05,0.0,0 STARLINK-4664,1 53777U 22111E   23060.59805682 -.00002052  00000-0 -11098-3 0  9993,2 53777  53.2193 190.7382 0001543 103.3437 256.7728 15.08813326 27012,6917.962,95.439,540.894,538.759,0.0
53777.0,STARLINK-4664,PAYLOAD,2023-03-02 17:22:45,15.0887091,0.0001134,53.2157,185.6812,81.1462,278.9658,0.0018662,0.00029563,0.0,0 STARLINK-4664,1 53777U 22111E   23061.72413802  .00029563  00000-0  18662-2 0  9995,2 53777  53.2157 185.6812 0001134  81.1462 278.9658 15.08870910 27188,6917.786,95.436,540.435,538.866,0.0
53777.0,STARLINK-4664,PAYLOAD,2023-03-03 09:16:37,15.08861227,0.0001302,53.2177,182.7088,66.4098,293.703,0.0017283,0.00027341,0.0,0 STARLINK-4664,1 53777U 22111E   23062.38653974  .00027341  00000-0  17283-2 0  9994,2 53777  53.2177 182.7088 0001302  66.4098 293.7030 15.08861227 26472,6917.816,95.436,540.581,538.78,0.0
53777.0,STARLINK-4664,PAYLOAD,2023-03-04 07:32:00,15.08833229,0.0001856,53.2172,178.5433,81.2238,278.8964,0.0013472,0.00021214,0.0,0 STARLINK-4664,1 53777U 22111E   23063.31389852  .00021214  00000-0  13472-2 0  9998,2 53777  53.2172 178.5433 0001856  81.2238 278.8964 15.08833229 26616,6917.901,95.438,541.05,538.482,0.0
53777.0,STARLINK-4664,PAYLOAD,2023-03-04 13:53:33,15.08856393,0.0002173,53.2179,177.3554,76.6314,283.4921,0.0013335,0.00021008,0.0,0 STARLINK-4664,1 53777U 22111E   23063.57885680  .00021008  00000-0  13335-2 0  9995,2 53777  53.2179 177.3554 0002173  76.6314 283.4921 15.08856393 26656,6917.83,95.437,541.199,538.192,0.0
53777.0,STARLINK-4664,PAYLOAD,2023-03-05 01:01:15,15.08850177,0.0001647,53.219,175.2743,82.1302,277.9877,0.0011748,0.00018464,0.0,0 STARLINK-4664,1 53777U 22111E   23064.04253844  .00018464  00000-0  11748-2 0  9997,2 53777  53.2190 175.2743 0001647  82.1302 277.9877 15.08850177 26720,6917.849,95.437,540.854,538.575,0.0
53777.0,STARLINK-4664,PAYLOAD,2023-03-06 11:59:44,15.08873615,0.0001503,53.217,168.7323,94.034,266.0824,0.0014916,0.00023552,0.0,0 STARLINK-4664,1 53777U 22111E   23065.49981641  .00023552  00000-0  14916-2 0  9994,2 53777  53.2170 168.7323 0001503  94.0340 266.0824 15.08873615 26941,6917.778,95.435,540.682,538.603,0.0
53777.0,STARLINK-4664,PAYLOAD,2023-03-06 18:21:15,15.08898296,0.0001558,53.2174,167.5424,100.9451,259.1717,0.0017949,0.00028439,0.0,0 STARLINK-4664,1 53777U 22111E   23065.76476545  .00028439  00000-0  17949-2 0  9994,2 53777  53.2174 167.5424 0001558 100.9451 259.1717 15.08898296 26984,6917.702,95.434,540.645,538.489,0.0
53777.0,STARLINK-4664,PAYLOAD,2023-03-07 05:28:58,15.08836884,0.0001103,53.2175,165.4613,103.3061,256.8054,-0.00025276,-4.308e-05,0.0,0 STARLINK-4664,1 53777U 22111E   23066.22845326 -.00004308  00000-0 -25276-3 0  9997,2 53777  53.2175 165.4613 0001103 103.3061 256.8054 15.08836884 27054,6917.89,95.438,540.518,538.992,0.0
53777.0,STARLINK-4664,PAYLOAD,2023-03-07 18:12:03,15.08880336,9.16e-05,53.2175,163.0828,101.4189,258.6906,0.003613,0.00057748,0.0,0 STARLINK-4664,1 53777U 22111E   23066.75837148  .00057748  00000-0  36130-2 0  9992,2 53777  53.2175 163.0828 0000916 101.4189 258.6906 15.08880336 27133,6917.757,95.435,540.256,538.988,0.0
53777.0,STARLINK-4664,PAYLOAD,2023-03-08 05:19:46,15.0882356,9.87e-05,53.2172,161.0023,120.5932,239.5157,0.0031543,0.00050248,0.0,0 STARLINK-4664,1 53777U 22111E   23067.22206121  .00050248  00000-0  31543-2 0  9997,2 53777  53.2172 161.0023 0000987 120.5932 239.5157 15.08823560 27201,6917.931,95.439,540.478,539.113,0.0
53777.0,STARLINK-4664,PAYLOAD,2023-03-08 21:13:37,15.08833124,0.0001215,53.2168,158.0286,66.5401,293.5719,0.002415,0.00038349,0.0,0 STARLINK-4664,1 53777U 22111E   23067.88446265  .00038349  00000-0  24150-2 0  9998,2 53777  53.2168 158.0286 0001215  66.5401 293.5719 15.08833124 28110,6917.901,95.438,540.607,538.926,0.0
53777.0,STARLINK-4664,PAYLOAD,2023-03-08 22:49:00,15.08838357,8.86e-05,53.2167,157.7314,103.6705,256.4386,0.0033462,0.00053368,0.0,0 STARLINK-4664,1 53777U 22111E   23067.95070063  .00053368  00000-0  33462-2 0  9999,2 53777  53.2167 157.7314 0000886 103.6705 256.4386 15.08838357 27312,6917.885,95.438,540.363,539.137,0.0
53777.0,STARLINK-4664,PAYLOAD,2023-03-09 06:45:56,15.08840635,7.92e-05,53.2164,156.2444,94.1027,266.0056,0.0031229,0.00049765,0.0,0 STARLINK-4664,1 53777U 22111E   23068.28190010  .00049765  00000-0  31229-2 0  9996,2 53777  53.2164 156.2444 0000792  94.1027 266.0056 15.08840635 27362,6917.878,95.438,540.291,539.196,0.0
53777.0,STARLINK-4664,PAYLOAD,2023-03-09 17:53:37,15.08909655,8.16e-05,53.2162,154.1627,97.3651,262.7434,0.004189,0.00067143,0.0,0 STARLINK-4664,1 53777U 22111E   23068.74556854  .00067143  00000-0  41890-2 0  9994,2 53777  53.2162 154.1627 0000816  97.3651 262.7434 15.08909655 27434,6917.667,95.433,540.097,538.968,0.0
53777.0,STARLINK-4664,PAYLOAD,2023-03-10 05:01:19,15.08859754,9.99e-05,53.2157,152.0817,92.6124,267.4982,0.0038723,0.00061915,0.0,0 STARLINK-4664,1 53777U 22111E   23069.20924989  .00061915  00000-0  38723-2 0  9996,2 53777  53.2157 152.0817 0000999  92.6124 267.4982 15.08859754 27503,6917.82,95.436,540.376,538.994,0.0
53777.0,STARLINK-4664,PAYLOAD,2023-03-10 19:19:46,15.08836348,0.0001456,53.2155,149.405,61.015,299.0988,-0.0010767,-0.00017381,0.0,0 STARLINK-4664,1 53777U 22111E   23069.80539970 -.00017381  00000-0 -10767-2 0  9992,2 53777  53.2155 149.4050 0001456  61.0150 299.0988 15.08836348 27598,6917.892,95.438,540.764,538.749,0.0
53777.0,STARLINK-4664,PAYLOAD,2023-03-10 20:55:09,15.08829648,0.0001499,53.2154,149.1078,61.6467,298.4676,2.5622e-05,1.2e-06,0.0,0 STARLINK-4664,1 53777U 22111E   23069.87164009  .00000120  00000-0  25622-4 0  9995,2 53777  53.2154 149.1078 0001499  61.6467 298.4676 15.08829648 28412,6917.912,95.438,540.814,538.74,0.0
53777.0,STARLINK-4664,PAYLOAD,2023-03-11 09:38:15,15.08846161,0.0001213,53.2154,146.7284,68.7574,291.3548,0.0036249,0.00057886,0.0,0 STARLINK-4664,1 53777U 22111E   23070.40156315  .00057886  00000-0  36249-2 0  9993,2 53777  53.2154 146.7284 0001213  68.7574 291.3548 15.08846161 27682,6917.862,95.437,540.566,538.887,0.0
53777.0,STARLINK-4664,PAYLOAD,2023-03-11 12:49:01,15.08857362,0.000119,53.2154,146.1336,68.6431,291.4688,0.0030983,0.00049391,0.0,0 STARLINK-4664,1 53777U 22111E   23070.53404195  .00049391  00000-0  30983-2 0  9990,2 53777  53.2154 146.1336 0001190  68.6431 291.4688 15.08857362 28513,6917.827,95.436,540.516,538.869,0.0
53777.0,STARLINK-4664,PAYLOAD,2023-03-11 19:10:34,15.08802795,0.0002289,53.2154,144.9446,52.2793,307.8406,-0.00035706,-5.961e-05,0.0,0 STARLINK-4664,1 53777U 22111E   23070.79900976 -.00005961  00000-0 -35706-3 0  9992,2 53777  53.2154 144.9446 0002289  52.2793 307.8406 15.08802795 27745,6917.994,95.44,541.443,538.276,0.0
53777.0,STARLINK-4664,PAYLOAD,2023-03-11 20:45:57,15.08793874,0.0002309,53.2154,144.6475,54.2118,305.9089,0.00011136,1.482e-05,0.0,0 STARLINK-4664,1 53777U 22111E   23070.86525174  .00001482  00000-0  11136-3 0  9996,2 53777  53.2154 144.6475 0002309  54.2118 305.9089 15.08793874 28564,6918.021,95.44,541.484,538.289,0.0
53777.0,STARLINK-4664,PAYLOAD,2023-03-12 07:53:40,15.08816883,0.0001166,53.2154,142.5652,88.9662,271.1463,0.0012043,0.00018918,0.0,0 STARLINK-4664,1 53777U 22111E   23071.32893895  .00018918  00000-0  12043-2 0  9995,2 53777  53.2154 142.5652 0001166  88.9662 271.1463 15.08816883 27820,6917.951,95.439,540.623,539.009,0.0
53777.0,STARLINK-4664,PAYLOAD,2023-03-12 12:39:50,15.08822702,0.0001194,53.2155,141.6731,92.8982,267.2147,0.0033047,0.00052674,0.0,0 STARLINK-4664,1 53777U 22111E   23071.52766477  .00052674  00000-0  33047-2 0  9996,2 53777  53.2155 141.6731 0001194  92.8982 267.2147 15.08822702 28664,6917.933,95.439,540.624,538.972,0.0
53777.0,STARLINK-4664,PAYLOAD,2023-03-12 19:01:23,15.08826095,0.000143,53.2156,140.484,72.6233,287.4916,0.0023518,0.00037325,0.0,0 STARLINK-4664,1 53777U 22111E   23071.79262929  .00037325  00000-0  23518-2 0  9996,2 53777  53.2156 140.4840 0001430  72.6233 287.4916 15.08826095 28703,6917.923,95.438,540.777,538.799,0.0
